[{"OBJECT_NAME":"STARLINK-4532","OBJECT_ID":"2022-097AN","EPOCH":"2026-03-09T12:36:53.688960","MEAN_MOTION":15.08845498,"ECCENTRICITY":0.0001025,"INCLINATION":53.2168,"RA_OF_ASC_NODE":114.8593,"ARG_OF_PERICENTER":73.1914,"MEAN_ANOMALY":286.9191,"EPHEMERIS_TYPE":0,"CLASSIFICATION_TYPE":"U","NORAD_CAT_ID":53424,"ELEMENT_SET_NO":999,"REV_AT_EPOCH":19862,"BSTAR":-0.00020065,"MEAN_MOTION_DOT":-3.48e-5,"MEAN_MOTION_DDOT":0},{"OBJECT_NAME":"APEX R\/B","OBJECT_ID":"1994-046B","EPOCH":"2026-03-09T21:22:00.361344","MEAN_MOTION":14.28228355,"ECCENTRICITY":0.06427603,"INCLINATION":69.9225,"RA_OF_ASC_NODE":359.7806,"ARG_OF_PERICENTER":191.622,"MEAN_ANOMALY":166.9456,"EPHEMERIS_TYPE":0,"CLASSIFICATION_TYPE":"U","NORAD_CAT_ID":23198,"ELEMENT_SET_NO":999,"REV_AT_EPOCH":53288,"BSTAR":0.00062123339,"MEAN_MOTION_DOT":0.00017491,"MEAN_MOTION_DDOT":0}]
